[{"OBJECT_NAME":"ONEWEB-0514","OBJECT_ID":"2022-138V","EPOCH":"2025-10-16T04:39:25.360992","MEAN_MOTION":13.19724966,"ECCENTRICITY":0.0001888,"INCLINATION":87.927,"RA_OF_ASC_NODE":353.4996,"ARG_OF_PERICENTER":95.7902,"MEAN_ANOMALY":264.3446,"EPHEMERIS_TYPE":0,"CLASSIFICATION_TYPE":"U","NORAD_CAT_ID":54132,"ELEMENT_SET_NO":999,"REV_AT_EPOCH":14464,"BSTAR":-0.00057004,"MEAN_MOTION_DOT":-2.15e-6,"MEAN_MOTION_DDOT":0},{"OBJECT_NAME":"ONEWEB-0515","OBJECT_ID":"2022-138W","EPOCH":"2025-10-16T02:32:59.335584","MEAN_MOTION":13.20770328,"ECCENTRICITY":0.0002775,"INCLINATION":87.9224,"RA_OF_ASC_NODE":323.097,"ARG_OF_PERICENTER":90.3523,"MEAN_ANOMALY":269.7928,"EPHEMERIS_TYPE":0,"CLASSIFICATION_TYPE":"U","NORAD_CAT_ID":54133,"ELEMENT_SET_NO":999,"REV_AT_EPOCH":14708,"BSTAR":0.00023551,"MEAN_MOTION_DOT":1.09e-6,"MEAN_MOTION_DDOT":0},{"OBJECT_NAME":"ONEWEB-0516","OBJECT_ID":"2022-138X","EPOCH":"2025-10-16T04:03:01.905120","MEAN_MOTION":13.1972518,"ECCENTRICITY":0.0001918,"INCLINATION":87.9256,"RA_OF_ASC_NODE":353.5305,"ARG_OF_PERICENTER":103.8235,"MEAN_ANOMALY":256.3111,"EPHEMERIS_TYPE":0,"CLASSIFICATION_TYPE":"U","NORAD_CAT_ID":54134,"ELEMENT_SET_NO":999,"REV_AT_EPOCH":14464,"BSTAR":-0.00058248,"MEAN_MOTION_DOT":-2.2e-6,"MEAN_MOTION_DDOT":0},{"OBJECT_NAME":"ONEWEB-0517","OBJECT_ID":"2022-138Y","EPOCH":"2025-10-16T03:33:27.058176","MEAN_MOTION":13.19724439,"ECCENTRICITY":0.0001642,"INCLINATION":87.9274,"RA_OF_ASC_NODE":353.5043,"ARG_OF_PERICENTER":93.1514,"MEAN_ANOMALY":266.9807,"EPHEMERIS_TYPE":0,"CLASSIFICATION_TYPE":"U","NORAD_CAT_ID":54135,"ELEMENT_SET_NO":999,"REV_AT_EPOCH":14464,"BSTAR":-0.00084495,"MEAN_MOTION_DOT":-3.25e-6,"MEAN_MOTION_DDOT":0},{"OBJECT_NAME":"ONEWEB-0518","OBJECT_ID":"2022-138Z","EPOCH":"2025-10-16T04:00:45.247968","MEAN_MOTION":13.19722512,"ECCENTRICITY":0.0001839,"INCLINATION":87.9259,"RA_OF_ASC_NODE":353.5324,"ARG_OF_PERICENTER":104.4633,"MEAN_ANOMALY":255.6704,"EPHEMERIS_TYPE":0,"CLASSIFICATION_TYPE":"U","NORAD_CAT_ID":54136,"ELEMENT_SET_NO":999,"REV_AT_EPOCH":14464,"BSTAR":0.00027437,"MEAN_MOTION_DOT":1.23e-6,"MEAN_MOTION_DDOT":0},{"OBJECT_NAME":"ONEWEB-0519","OBJECT_ID":"2022-138AA","EPOCH":"2025-10-16T04:37:08.491296","MEAN_MOTION":13.19723165,"ECCENTRICITY":0.0001677,"INCLINATION":87.9275,"RA_OF_ASC_NODE":353.4872,"ARG_OF_PERICENTER":96.0529,"MEAN_ANOMALY":264.0795,"EPHEMERIS_TYPE":0,"CLASSIFICATION_TYPE":"U","NORAD_CAT_ID":54137,"ELEMENT_SET_NO":999,"REV_AT_EPOCH":14465,"BSTAR":0.00011776,"MEAN_MOTION_DOT":6.0e-7,"MEAN_MOTION_DDOT":0},{"OBJECT_NAME":"ONEWEB-0520","OBJECT_ID":"2022-138AB","EPOCH":"2025-10-16T03:38:00.746592","MEAN_MOTION":13.19722248,"ECCENTRICITY":0.0001775,"INCLINATION":87.9282,"RA_OF_ASC_NODE":353.4995,"ARG_OF_PERICENTER":109.06,"MEAN_ANOMALY":251.0725,"EPHEMERIS_TYPE":0,"CLASSIFICATION_TYPE":"U","NORAD_CAT_ID":54138,"ELEMENT_SET_NO":999,"REV_AT_EPOCH":14463,"BSTAR":0.00026781,"MEAN_MOTION_DOT":1.2e-6,"MEAN_MOTION_DDOT":0},{"OBJECT_NAME":"ONEWEB-0521","OBJECT_ID":"2022-138AC","EPOCH":"2025-10-16T04:25:47.142624","MEAN_MOTION":13.19726123,"ECCENTRICITY":0.0001746,"INCLINATION":87.9273,"RA_OF_ASC_NODE":353.478,"ARG_OF_PERICENTER":93.3288,"MEAN_ANOMALY":266.8044,"EPHEMERIS_TYPE":0,"CLASSIFICATION_TYPE":"U","NORAD_CAT_ID":54139,"ELEMENT_SET_NO":999,"REV_AT_EPOCH":14458,"BSTAR":-0.00038987,"MEAN_MOTION_DOT":-1.43e-6,"MEAN_MOTION_DDOT":0},{"OBJECT_NAME":"ONEWEB-0522","OBJECT_ID":"2022-138AD","EPOCH":"2025-10-16T03:56:13.784352","MEAN_MOTION":13.19725271,"ECCENTRICITY":0.0001817,"INCLINATION":87.9272,"RA_OF_ASC_NODE":353.4833,"ARG_OF_PERICENTER":105.2431,"MEAN_ANOMALY":254.8903,"EPHEMERIS_TYPE":0,"CLASSIFICATION_TYPE":"U","NORAD_CAT_ID":54140,"ELEMENT_SET_NO":999,"REV_AT_EPOCH":14462,"BSTAR":9.8505e-5,"MEAN_MOTION_DOT":5.2e-7,"MEAN_MOTION_DDOT":0},{"OBJECT_NAME":"ONEWEB-0523","OBJECT_ID":"2022-138AE","EPOCH":"2025-10-16T02:14:47.404608","MEAN_MOTION":13.20771256,"ECCENTRICITY":0.0002432,"INCLINATION":87.9214,"RA_OF_ASC_NODE":323.1229,"ARG_OF_PERICENTER":78.1583,"MEAN_ANOMALY":281.9823,"EPHEMERIS_TYPE":0,"CLASSIFICATION_TYPE":"U","NORAD_CAT_ID":54141,"ELEMENT_SET_NO":999,"REV_AT_EPOCH":14708,"BSTAR":-0.00058046,"MEAN_MOTION_DOT":-2.23e-6,"MEAN_MOTION_DDOT":0},{"OBJECT_NAME":"ONEWEB-0524","OBJECT_ID":"2022-138AF","EPOCH":"2025-10-16T01:58:54.905088","MEAN_MOTION":13.20771335,"ECCENTRICITY":0.0002878,"INCLINATION":87.9216,"RA_OF_ASC_NODE":323.1265,"ARG_OF_PERICENTER":96.5363,"MEAN_ANOMALY":263.6098,"EPHEMERIS_TYPE":0,"CLASSIFICATION_TYPE":"U","NORAD_CAT_ID":54142,"ELEMENT_SET_NO":999,"REV_AT_EPOCH":14708,"BSTAR":0.00014542,"MEAN_MOTION_DOT":7.2e-7,"MEAN_MOTION_DDOT":0},{"OBJECT_NAME":"ONEWEB-0525","OBJECT_ID":"2022-138AG","EPOCH":"2025-10-16T04:23:30.278112","MEAN_MOTION":13.19725545,"ECCENTRICITY":0.0001804,"INCLINATION":87.9277,"RA_OF_ASC_NODE":353.502,"ARG_OF_PERICENTER":109.5961,"MEAN_ANOMALY":250.5366,"EPHEMERIS_TYPE":0,"CLASSIFICATION_TYPE":"U","NORAD_CAT_ID":54143,"ELEMENT_SET_NO":999,"REV_AT_EPOCH":14464,"BSTAR":-0.00038487,"MEAN_MOTION_DOT":-1.41e-6,"MEAN_MOTION_DDOT":0},{"OBJECT_NAME":"ONEWEB-0526","OBJECT_ID":"2022-138AH","EPOCH":"2025-10-16T03:22:05.623104","MEAN_MOTION":13.19723805,"ECCENTRICITY":0.0001893,"INCLINATION":87.9272,"RA_OF_ASC_NODE":353.4966,"ARG_OF_PERICENTER":102.3074,"MEAN_ANOMALY":257.8271,"EPHEMERIS_TYPE":0,"CLASSIFICATION_TYPE":"U","NORAD_CAT_ID":54144,"ELEMENT_SET_NO":999,"REV_AT_EPOCH":14461,"BSTAR":0.00016579,"MEAN_MOTION_DOT":7.9e-7,"MEAN_MOTION_DDOT":0},{"OBJECT_NAME":"ONEWEB-0529","OBJECT_ID":"2022-138AJ","EPOCH":"2025-10-16T03:26:38.226336","MEAN_MOTION":13.19724232,"ECCENTRICITY":0.0001863,"INCLINATION":87.9258,"RA_OF_ASC_NODE":353.5322,"ARG_OF_PERICENTER":106.913,"MEAN_ANOMALY":253.2207,"EPHEMERIS_TYPE":0,"CLASSIFICATION_TYPE":"U","NORAD_CAT_ID":54145,"ELEMENT_SET_NO":999,"REV_AT_EPOCH":14463,"BSTAR":-0.0001182,"MEAN_MOTION_DOT":-3.4e-7,"MEAN_MOTION_DDOT":0},{"OBJECT_NAME":"ONEWEB-0531","OBJECT_ID":"2022-138AK","EPOCH":"2025-10-16T03:27:32.552064","MEAN_MOTION":13.20770524,"ECCENTRICITY":0.0002656,"INCLINATION":87.9213,"RA_OF_ASC_NODE":323.1049,"ARG_OF_PERICENTER":82.9007,"MEAN_ANOMALY":277.2429,"EPHEMERIS_TYPE":0,"CLASSIFICATION_TYPE":"U","NORAD_CAT_ID":54146,"ELEMENT_SET_NO":999,"REV_AT_EPOCH":14709,"BSTAR":0.00015362,"MEAN_MOTION_DOT":7.5e-7,"MEAN_MOTION_DDOT":0},{"OBJECT_NAME":"ONEWEB-0535","OBJECT_ID":"2022-138AL","EPOCH":"2025-10-16T04:14:24.749376","MEAN_MOTION":13.19724149,"ECCENTRICITY":0.0001965,"INCLINATION":87.9275,"RA_OF_ASC_NODE":353.4849,"ARG_OF_PERICENTER":88.8243,"MEAN_ANOMALY":271.3115,"EPHEMERIS_TYPE":0,"CLASSIFICATION_TYPE":"U","NORAD_CAT_ID":54147,"ELEMENT_SET_NO":999,"REV_AT_EPOCH":14465,"BSTAR":-2.7869e-5,"MEAN_MOTION_DOT":2.0e-8,"MEAN_MOTION_DDOT":0},{"OBJECT_NAME":"ONEWEB-0536","OBJECT_ID":"2022-138AM","EPOCH":"2025-10-16T03:09:20.030976","MEAN_MOTION":13.20771141,"ECCENTRICITY":0.0002876,"INCLINATION":87.9211,"RA_OF_ASC_NODE":323.1542,"ARG_OF_PERICENTER":85.1995,"MEAN_ANOMALY":274.9467,"EPHEMERIS_TYPE":0,"CLASSIFICATION_TYPE":"U","NORAD_CAT_ID":54148,"ELEMENT_SET_NO":999,"REV_AT_EPOCH":14708,"BSTAR":-0.00049959,"MEAN_MOTION_DOT":-1.9e-6,"MEAN_MOTION_DDOT":0}]
