ONEWEB-0514             
1 54132U 22138V   25289.19404353 -.00000215  00000+0 -57004-3 0  9994
2 54132  87.9270 353.4996 0001888  95.7902 264.3446 13.19724966144642
ONEWEB-0515             
1 54133U 22138W   25289.10624231  .00000109  00000+0  23551-3 0  9995
2 54133  87.9224 323.0970 0002775  90.3523 269.7928 13.20770328147083
ONEWEB-0516             
1 54134U 22138X   25289.16877205 -.00000220  00000+0 -58248-3 0  9990
2 54134  87.9256 353.5305 0001918 103.8235 256.3111 13.19725180144646
ONEWEB-0517             
1 54135U 22138Y   25289.14822984 -.00000325  00000+0 -84495-3 0  9992
2 54135  87.9274 353.5043 0001642  93.1514 266.9807 13.19724439144646
ONEWEB-0518             
1 54136U 22138Z   25289.16719037  .00000123  00000+0  27437-3 0  9996
2 54136  87.9259 353.5324 0001839 104.4633 255.6704 13.19722512144649
ONEWEB-0519             
1 54137U 22138AA  25289.19245939  .00000060  00000+0  11776-3 0  9994
2 54137  87.9275 353.4872 0001677  96.0529 264.0795 13.19723165144655
ONEWEB-0520             
1 54138U 22138AB  25289.15139753  .00000120  00000+0  26781-3 0  9996
2 54138  87.9282 353.4995 0001775 109.0600 251.0725 13.19722248144632
ONEWEB-0521             
1 54139U 22138AC  25289.18457341 -.00000143  00000+0 -38987-3 0  9994
2 54139  87.9273 353.4780 0001746  93.3288 266.8044 13.19726123144588
ONEWEB-0522             
1 54140U 22138AD  25289.16404843  .00000052  00000+0  98505-4 0  9993
2 54140  87.9272 353.4833 0001817 105.2431 254.8903 13.19725271144629
ONEWEB-0523             
1 54141U 22138AE  25289.09360422 -.00000223  00000+0 -58046-3 0  9997
2 54141  87.9214 323.1229 0002432  78.1583 281.9823 13.20771256147080
ONEWEB-0524             
1 54142U 22138AF  25289.08257992  .00000072  00000+0  14542-3 0  9997
2 54142  87.9216 323.1265 0002878  96.5363 263.6098 13.20771335147086
ONEWEB-0525             
1 54143U 22138AG  25289.18298933 -.00000141  00000+0 -38487-3 0  9992
2 54143  87.9277 353.5020 0001804 109.5961 250.5366 13.19725545144649
ONEWEB-0526             
1 54144U 22138AH  25289.14034286  .00000079  00000+0  16579-3 0  9994
2 54144  87.9272 353.4966 0001893 102.3074 257.8271 13.19723805144616
ONEWEB-0529             
1 54145U 22138AJ  25289.14349799 -.00000034  00000+0 -11820-3 0  9990
2 54145  87.9258 353.5322 0001863 106.9130 253.2207 13.19724232144634
ONEWEB-0531             
1 54146U 22138AK  25289.14412676  .00000075  00000+0  15362-3 0  9994
2 54146  87.9213 323.1049 0002656  82.9007 277.2429 13.20770524147094
ONEWEB-0535             
1 54147U 22138AL  25289.17667534  .00000002  00000+0 -27869-4 0  9990
2 54147  87.9275 353.4849 0001965  88.8243 271.3115 13.19724149144652
ONEWEB-0536             
1 54148U 22138AM  25289.13148184 -.00000190  00000+0 -49959-3 0  9994
2 54148  87.9211 323.1542 0002876  85.1995 274.9467 13.20771141147088
